*******************************************************************************
JPL/HORIZONS                224 Oceana (A882 FA)           2020-Jun-22 08:41:55
Rec #:     224 (+COV) Soln.date: 2020-May-20_01:01:08   # obs: 2666 (1899-2020)
 
IAU76/J2000 helio. ecliptic osc. elements (au, days, deg., period=Julian yrs):
 
  EPOCH=  2455599.5 ! 2011-Feb-07.00 (TDB)         Residual RMS= .32531
   EC= .04507899020217667  QR= 2.526477411834569   TP= 2456012.6293945052
   OM= 352.9185197483139   W=  282.0712415146339   IN= 5.838300781136024
   A= 2.645744921215501    MA= 265.3832091814303   ADIST= 2.765012430596434
   PER= 4.30358            N= .229024585           ANGMOM= .027952053
   DAN= 2.61571            DDN= 2.6655             L= 275.0508521
   B= -5.7087722           MOID= 1.51724994        TP= 2012-Mar-26.1293945052
 
Asteroid physical parameters (km, seconds, rotational period in hours):
   GM= n.a.                RAD= 29.118             ROTPER= 9.401
   H= 8.6                  G= .150                 B-V= .748
                           ALBEDO= .166            STYP= M
 
ASTEROID comments: 
1: soln ref.= JPL#48, OCC=0
2: source=ORB
*******************************************************************************
 
 
*******************************************************************************
Ephemeris / WWW_USER Mon Jun 22 08:41:55 2020 Pasadena, USA      / Horizons
*******************************************************************************
Target body name: 224 Oceana (A882 FA)            {source: JPL#48}
Center body name: Solar System Barycenter (0)     {source: DE431}
Center-site name: BODY CENTER
*******************************************************************************
Start time      : A.D. 1969-Jun-28 00:00:00.0000 TDB
Stop  time      : A.D. 2071-May-04 00:00:00.0000 TDB
Step-size       : 7200 minutes
*******************************************************************************
Center geodetic : 0.00000000,0.00000000,0.0000000 {E-lon(deg),Lat(deg),Alt(km)}
Center cylindric: 0.00000000,0.00000000,0.0000000 {E-lon(deg),Dxy(km),Dz(km)}
Center radii    : (undefined)                                                  
Small perturbers: Yes                             {source: SB431-N16}
Output units    : AU-D
Output type     : GEOMETRIC cartesian states
Output format   : 2 (position and velocity)
Reference frame : Ecliptic of J2000.0
*******************************************************************************
Initial IAU76/J2000 heliocentric ecliptic osculating elements (au, days, deg.):
  EPOCH=  2455599.5 ! 2011-Feb-07.00 (TDB)         Residual RMS= .32531        
   EC= .04507899020217667  QR= 2.526477411834569   TP= 2456012.6293945052      
   OM= 352.9185197483139   W=  282.0712415146339   IN= 5.838300781136024       
  Equivalent ICRF heliocentric equatorial cartesian coordinates (au, au/d):
   X=-2.651459034132779E+00  Y= 2.068672547536513E-01  Z= 7.766642603929239E-02
  VX=-3.937661310646073E-04 VY=-9.168025737464941E-03 VZ=-5.136503194383417E-03
Asteroid physical parameters (km, seconds, rotational period in hours):        
   GM= n.a.                RAD= 29.118             ROTPER= 9.401               
   H= 8.6                  G= .150                 B-V= .748                   
                           ALBEDO= .166            STYP= M                     
*******************************************************************************
            JDTDB,            Calendar Date (TDB),        delta-T,                      X,                      Y,                      Z,                     VX,                     VY,                     VZ,
******************************************************************************************************************************************************************************************************************
$$SOE
2446000.500000000, A.D. 1984-Oct-27 00:00:00.0000,      54.182434, -2.027652382167807E+00,  1.821552620577779E+00,  1.607730103716403E-01, -6.623784837043192E-03, -7.800644566098913E-03, -8.720626884267204E-04,
2446005.500000000, A.D. 1984-Nov-01 00:00:00.0000,      54.182495, -2.060398196941941E+00,  1.782220127515183E+00,  1.563835241237328E-01, -6.474098324589325E-03, -7.931911136987884E-03, -8.836816300033753E-04,
2446010.500000000, A.D. 1984-Nov-06 00:00:00.0000,      54.182566, -2.092388972183719E+00,  1.742237968660391E+00,  1.519366999856869E-01, -6.321775908961001E-03, -8.060502048340312E-03, -8.949970247605758E-04,
2446015.500000000, A.D. 1984-Nov-11 00:00:00.0000,      54.182647, -2.123611632522777E+00,  1.701619654527163E+00,  1.474340679462128E-01, -6.166859423183781E-03, -8.186364475032406E-03, -9.060039791609181E-04,
2446020.500000000, A.D. 1984-Nov-16 00:00:00.0000,      54.182740, -2.154053314383690E+00,  1.660378958819803E+00,  1.428771823354271E-01, -6.009391753698161E-03, -8.309445969086844E-03, -9.166976505145586E-04,
2446025.500000000, A.D. 1984-Nov-21 00:00:00.0000,      54.182843, -2.183701371275268E+00,  1.618529916500072E+00,  1.382676215655260E-01, -5.849416849216024E-03, -8.429694478738151E-03, -9.270732490264568E-04,
2446030.500000000, A.D. 1984-Nov-26 00:00:00.0000,      54.182956, -2.212543379123585E+00,  1.576086821756933E+00,  1.336069878610475E-01, -5.686979729351538E-03, -8.547058368231259E-03, -9.371260399136501E-04,
2446035.500000000, A.D. 1984-Dec-01 00:00:00.0000,      54.183076, -2.240567141647544E+00,  1.533064225875445E+00,  1.288969069783729E-01, -5.522126492988628E-03, -8.661486438373502E-03, -9.468513455924036E-04,
2446040.500000000, A.D. 1984-Dec-06 00:00:00.0000,      54.183201, -2.267760695775460E+00,  1.489476935000916E+00,  1.241390279141158E-01, -5.354904326319724E-03, -8.772927947885615E-03, -9.562445479349993E-04,
2446045.500000000, A.D. 1984-Dec-11 00:00:00.0000,      54.183332, -2.294112317101002E+00,  1.445340007794174E+00,  1.193350226020572E-01, -5.185361510555334E-03, -8.881332635618669E-03, -9.653010905959515E-04,
2446050.500000000, A.D. 1984-Dec-16 00:00:00.0000,      54.183469, -2.319610525377159E+00,  1.400668752973514E+00,  1.144865855982692E-01, -5.013547429483112E-03, -8.986650743647039E-03, -9.740164814105826E-04,
2446055.500000000, A.D. 1984-Dec-21 00:00:00.0000,      54.183612, -2.344244090048311E+00,  1.355478726739483E+00,  1.095954337540484E-01, -4.839512577164242E-03, -9.088833040967557E-03, -9.823862948739796E-04,
2446060.500000000, A.D. 1984-Dec-26 00:00:00.0000,      54.183759, -2.368002035820730E+00,  1.309785730080587E+00,  1.046633058762478E-01, -4.663308565482868E-03, -9.187830847409753E-03, -9.904061747007991E-04,
2446065.500000000, A.D. 1984-Dec-31 00:00:00.0000,      54.183906, -2.390873648268294E+00,  1.263605805958318E+00,  9.969196237465429E-02, -4.484988130541095E-03, -9.283596058127317E-03, -9.980718364424638E-04,
2446070.500000000, A.D. 1985-Jan-05 00:00:00.0000,      54.184052, -2.412848479466899E+00,  1.216955236366499E+00,  9.468318489616838E-02, -4.304605137867657E-03, -9.376081169478516E-03, -1.005379070151238E-03,
2446075.500000000, A.D. 1985-Jan-10 00:00:00.0000,      54.184198, -2.433916353654016E+00,  1.169850539257657E+00,  8.963877594549720E-02, -4.122214587408163E-03, -9.465239306230572E-03, -1.012323743115143E-03,
2446080.500000000, A.D. 1985-Jan-15 00:00:00.0000,      54.184342, -2.454067372913543E+00,  1.122308465331468E+00,  8.456055849195754E-02, -3.937872618633914E-03, -9.551024249436445E-03, -1.018901802679516E-03,
2446085.500000000, A.D. 1985-Jan-20 00:00:00.0000,      54.184486, -2.473291922885720E+00,  1.074345994682740E+00,  7.945037556197085E-02, -3.751636515367635E-03, -9.633390464754610E-03, -1.025109279146500E-03,
2446090.500000000, A.D. 1985-Jan-25 00:00:00.0000,      54.184627, -2.491580678499721E+00,  1.025980333306404E+00,  7.431008981688494E-02, -3.563564710008863E-03, -9.712293131351120E-03, -1.030942288743242E-03,
2446095.500000000, A.D. 1985-Jan-30 00:00:00.0000,      54.184761, -2.508924609725677E+00,  9.772289094562493E-01,  6.914158311579006E-02, -3.373716787073532E-03, -9.787688171514859E-03, -1.036397036657623E-03,
2446100.500000000, A.D. 1985-Feb-04 00:00:00.0000,      54.184888, -2.525314987342696E+00,  9.281093698537345E-01,  6.394675606297699E-02, -3.182153486056805E-03, -9.859532281006139E-03, -1.041469820145765E-03,
2446105.500000000, A.D. 1985-Feb-09 00:00:00.0000,      54.185008, -2.540743388719495E+00,  8.786395757432964E-01,  5.872752753966700E-02, -2.988936703613184E-03, -9.927782960103642E-03, -1.046157031716803E-03,
2446110.500000000, A.D. 1985-Feb-14 00:00:00.0000,      54.185121, -2.555201703604154E+00,  8.288375987907932E-01,  5.348583421961294E-02, -2.794129495011145E-03, -9.992398545291220E-03, -1.050455162400972E-03,
2446115.500000000, A.D. 1985-Feb-19 00:00:00.0000,      54.185227, -2.568682139919159E+00,  7.787217168220373E-01,  4.822363006813967E-02, -2.597796074777387E-03, -1.005333824152752E-02, -1.054360805106169E-03,
2446120.500000000, A.D. 1985-Feb-24 00:00:00.0000,      54.185323, -2.581177229557374E+00,  7.283104093986301E-01,  4.294288582417485E-02, -2.400001816401291E-03, -1.011056215504698E-02, -1.057870658065542E-03,
2446125.500000000, A.D. 1985-Mar-01 00:00:00.0000,      54.185409, -2.592679834173820E+00,  6.776223532285436E-01,  3.764558846481967E-02, -2.200813250911986E-03, -1.016403132665845E-02, -1.060981528372486E-03,
2446130.500000000, A.D. 1985-Mar-06 00:00:00.0000,      54.185482, -2.603183150966997E+00,  6.266764174089183E-01,  3.233374065205141E-02, -2.000298064075474E-03, -1.021370776557231E-02, -1.063690335589576E-03,
2446135.500000000, A.D. 1985-Mar-11 00:00:00.0000,      54.185544, -2.612680718442240E+00,  5.754916584981616E-01,  2.700936016124013E-02, -1.798525091983832E-03, -1.025955448388864E-02, -1.065994115411006E-03,
